STARLINK-34898          
1 65895U 25224P   26068.16114694 -.00011081  00000+0 -36309-3 0  9998
2 65895  53.1612  13.7808 0001087  92.3455 267.7670 15.30151728 24794
2025-313BE              
1 67482U 25313BE  26068.69721505  .00077178  00000+0  26504-2 0  9996
2 67482  97.3989 145.3568 0007208 335.3714  24.7181 15.29801687  7972
