[{"OBJECT_NAME":"STARLINK-34898","OBJECT_ID":"2025-224P","EPOCH":"2026-03-09T03:52:03.095616","MEAN_MOTION":15.30151728,"ECCENTRICITY":0.00010873,"INCLINATION":53.1612,"RA_OF_ASC_NODE":13.7808,"ARG_OF_PERICENTER":92.3455,"MEAN_ANOMALY":267.767,"EPHEMERIS_TYPE":0,"CLASSIFICATION_TYPE":"U","NORAD_CAT_ID":65895,"ELEMENT_SET_NO":999,"REV_AT_EPOCH":2479,"BSTAR":-0.00036309027,"MEAN_MOTION_DOT":-0.00011081,"MEAN_MOTION_DDOT":0},{"OBJECT_NAME":"OBJECT BE","OBJECT_ID":"2025-313BE","EPOCH":"2026-03-09T16:43:59.380320","MEAN_MOTION":15.29801687,"ECCENTRICITY":0.00072083,"INCLINATION":97.3989,"RA_OF_ASC_NODE":145.3568,"ARG_OF_PERICENTER":335.3714,"MEAN_ANOMALY":24.7181,"EPHEMERIS_TYPE":0,"CLASSIFICATION_TYPE":"U","NORAD_CAT_ID":67482,"ELEMENT_SET_NO":999,"REV_AT_EPOCH":797,"BSTAR":0.0026504328,"MEAN_MOTION_DOT":0.00077178,"MEAN_MOTION_DDOT":0}]
